GLOBALSTAR M094         
1 39074U 13005C   24198.11984150 -.00000098  00000+0  30247-4 0  9992
2 39074  51.9954 125.3431 0000284  15.5911 344.4964 12.62267506529932
GLOBALSTAR M096         
1 39075U 13005D   24198.29136805 -.00000087  00000+0  92143-4 0  9999
2 39075  52.0050 173.0727 0000219 253.5470 106.5372 12.62267585528871
GLOBALSTAR M078         
1 39076U 13005E   24198.50264339 -.00000078  00000+0  14544-3 0  9996
2 39076  51.9859 257.4000 0001340 147.5741 212.5208 12.62273198527734
GLOBALSTAR M095         
1 39077U 13005F   24198.44953004 -.00000079  00000+0  14075-3 0  9994
2 39077  51.9786 254.9227 0000927 175.1688 184.9187 12.62262295527378
GLOBALSTAR M087         
1 52888U 22064A   24198.25067581 -.00000094  00000+0  66042-4 0  9998
2 52888  51.9758 107.0381 0009988  77.4342 282.7675 13.37578405101416
